start=new Date('2022-03-31T00:00:00.000Z').valueOf();
sats=[{"RA_OF_ASC_NODE":"220.4810","APOAPSIS":"548.316","OBJECT_TYPE":"PAYLOAD","EPHEMERIS_TYPE":"0","RCS_SIZE":"LARGE","MEAN_ELEMENT_THEORY":"SGP4","OBJECT_NAME":"STARLINK-1459","TLE_LINE2":"2 45769  53.0551 220.4810 0001621  59.5026 300.6123 15.06406604 99179","MEAN_MOTION":"15.06406604","ARG_OF_PERICENTER":"59.5026","CLASSIFICATION_TYPE":"U","ECCENTRICITY":"0.00016210","TIME_SYSTEM":"UTC","CENTER_NAME":"EARTH","COUNTRY_CODE":"US","MEAN_ANOMALY":"300.6123","MEAN_MOTION_DOT":"0.00001000","OBJECT_ID":"2020-038AR","SEMIMAJOR_AXIS":"6925.328","BSTAR":"0.00008601800000","DECAY_DATE":null,"PERIAPSIS":"546.071","FILE":"3380787","TLE_LINE1":"1 45769U 20038AR  22089.81394448  .00001000  00000-0  86018-4 0  9994","REV_AT_EPOCH":"9917","SITE":"AFETR","ELEMENT_SET_NO":"999","PERIOD":"95.592","LAUNCH_DATE":"2020-06-13","REF_FRAME":"TEME","INCLINATION":"53.0551","MEAN_MOTION_DDOT":"0.0000000000000","EPOCH":"2022-03-30T19:32:04.803072","NORAD_CAT_ID":"45769","GP_ID":"200095198"},{"BSTAR":"0.00072442000000","PERIAPSIS":"546.123","FILE":"3380779","DECAY_DATE":null,"MEAN_MOTION_DOT":"0.00010528","SEMIMAJOR_AXIS":"6925.316","OBJECT_ID":"2020-038AS","PERIOD":"95.591","LAUNCH_DATE":"2020-06-13","TLE_LINE1":"1 45770U 20038AS  22089.55131691  .00010528  00000-0  72442-3 0  9996","ELEMENT_SET_NO":"999","REV_AT_EPOCH":"9968","SITE":"AFETR","NORAD_CAT_ID":"45770","INCLINATION":"53.0530","REF_FRAME":"TEME","MEAN_MOTION_DDOT":"0.0000000000000","EPOCH":"2022-03-30T13:13:53.781024","GP_ID":"200068837","OBJECT_TYPE":"PAYLOAD","APOAPSIS":"548.240","RA_OF_ASC_NODE":"181.6429","MEAN_ELEMENT_THEORY":"SGP4","TLE_LINE2":"2 45770  53.0530 181.6429 0001529  60.1844 299.9297 15.06410486 99686","OBJECT_NAME":"STARLINK-1462","EPHEMERIS_TYPE":"0","RCS_SIZE":"LARGE","CENTER_NAME":"EARTH","MEAN_MOTION":"15.06410486","TIME_SYSTEM":"UTC","ECCENTRICITY":"0.00015290","CLASSIFICATION_TYPE":"U","ARG_OF_PERICENTER":"60.1844","MEAN_ANOMALY":"299.9297","COUNTRY_CODE":"US"},{"OBJECT_NAME":"STARLINK-1463","TLE_LINE2":"2 45771  53.0549 181.6897 0001617  55.3251 304.7890 15.06402128 99680","MEAN_ELEMENT_THEORY":"SGP4","RCS_SIZE":"LARGE","EPHEMERIS_TYPE":"0","APOAPSIS":"548.327","RA_OF_ASC_NODE":"181.6897","OBJECT_TYPE":"PAYLOAD","COUNTRY_CODE":"US","MEAN_ANOMALY":"304.7890","CENTER_NAME":"EARTH","CLASSIFICATION_TYPE":"U","ARG_OF_PERICENTER":"55.3251","ECCENTRICITY":"0.00016170","TIME_SYSTEM":"UTC","MEAN_MOTION":"15.06402128","LAUNCH_DATE":"2020-06-13","PERIOD":"95.592","REV_AT_EPOCH":"9968","SITE":"AFETR","ELEMENT_SET_NO":"999","TLE_LINE1":"1 45771U 20038AT  22089.54488148  .00000712  00000-0  66677-4 0  9996","DECAY_DATE":null,"FILE":"3380779","PERIAPSIS":"546.087","BSTAR":"0.00006667700000","OBJECT_ID":"2020-038AT","SEMIMAJOR_AXIS":"6925.342","MEAN_MOTION_DOT":"0.00000712","GP_ID":"200069587","NORAD_CAT_ID":"45771","EPOCH":"2022-03-30T13:04:37.759872","MEAN_MOTION_DDOT":"0.0000000000000","REF_FRAME":"TEME","INCLINATION":"53.0549"},{"OBJECT_ID":"2020-038AU","SEMIMAJOR_AXIS":"6925.326","MEAN_MOTION_DOT":"0.00006045","FILE":"3380787","PERIAPSIS":"546.258","DECAY_DATE":null,"BSTAR":"0.00042426000000","ELEMENT_SET_NO":"999","REV_AT_EPOCH":"9972","SITE":"AFETR","TLE_LINE1":"1 45772U 20038AU  22089.73287161  .00006045  00000-0  42426-3 0  9990","LAUNCH_DATE":"2020-06-13","PERIOD":"95.592","MEAN_MOTION_DDOT":"0.0000000000000","EPOCH":"2022-03-30T17:35:20.107104","INCLINATION":"53.0528","REF_FRAME":"TEME","NORAD_CAT_ID":"45772","GP_ID":"200094947","OBJECT_TYPE":"PAYLOAD","APOAPSIS":"548.123","RA_OF_ASC_NODE":"180.8305","RCS_SIZE":"LARGE","EPHEMERIS_TYPE":"0","TLE_LINE2":"2 45772  53.0528 180.8305 0001346  66.6720 293.4411 15.06407503 99728","OBJECT_NAME":"STARLINK-1470","MEAN_ELEMENT_THEORY":"SGP4","ECCENTRICITY":"0.00013460","TIME_SYSTEM":"UTC","CLASSIFICATION_TYPE":"U","ARG_OF_PERICENTER":"66.6720","MEAN_MOTION":"15.06407503","CENTER_NAME":"EARTH","MEAN_ANOMALY":"293.4411","COUNTRY_CODE":"US"},{"REF_FRAME":"TEME","INCLINATION":"53.0548","MEAN_MOTION_DDOT":"0.0000000000000","EPOCH":"2022-03-30T14:13:37.932960","NORAD_CAT_ID":"45773","GP_ID":"200095699","MEAN_MOTION_DOT":"-0.00002597","OBJECT_ID":"2020-038AV","SEMIMAJOR_AXIS":"6925.376","BSTAR":"-0.00015552000000","DECAY_DATE":null,"FILE":"3380787","PERIAPSIS":"546.238","TLE_LINE1":"1 45773U 20038AV  22089.59280015 -.00002597  00000-0 -15552-3 0  9996","SITE":"AFETR","REV_AT_EPOCH":"9970","ELEMENT_SET_NO":"999","PERIOD":"95.593","LAUNCH_DATE":"2020-06-13","MEAN_MOTION":"15.06391015","ARG_OF_PERICENTER":"60.5713","CLASSIFICATION_TYPE":"U","TIME_SYSTEM":"UTC","ECCENTRICITY":"0.00014480","CENTER_NAME":"EARTH","COUNTRY_CODE":"US","MEAN_ANOMALY":"299.5420","RA_OF_ASC_NODE":"181.4691","APOAPSIS":"548.244","OBJECT_TYPE":"PAYLOAD","EPHEMERIS_TYPE":"0","RCS_SIZE":"LARGE","MEAN_ELEMENT_THEORY":"SGP4","OBJECT_NAME":"STARLINK-1482","TLE_LINE2":"2 45773  53.0548 181.4691 0001448  60.5713 299.5420 15.06391015 99709"},{"GP_ID":"200069338","NORAD_CAT_ID":"45774","MEAN_MOTION_DDOT":"0.0000000000000","EPOCH":"2022-03-30T13:31:10.074720","REF_FRAME":"TEME","INCLINATION":"53.0553","LAUNCH_DATE":"2020-06-13","PERIOD":"95.592","REV_AT_EPOCH":"9969","SITE":"AFETR","ELEMENT_SET_NO":"999","TLE_LINE1":"1 45774U 20038AW  22089.56331105  .00000901  00000-0  79397-4 0  9994","DECAY_DATE":null,"PERIAPSIS":"546.120","FILE":"3380779","BSTAR":"0.00007939700000","OBJECT_ID":"2020-038AW","SEMIMAJOR_AXIS":"6925.344","MEAN_MOTION_DOT":"0.00000901","COUNTRY_CODE":"US","MEAN_ANOMALY":"299.2841","CENTER_NAME":"EARTH","CLASSIFICATION_TYPE":"U","ARG_OF_PERICENTER":"60.8305","TIME_SYSTEM":"UTC","ECCENTRICITY":"0.00015730","MEAN_MOTION":"15.06401430","OBJECT_NAME":"STARLINK-1485","TLE_LINE2":"2 45774  53.0553 181.5966 0001573  60.8305 299.2841 15.06401430 99696","MEAN_ELEMENT_THEORY":"SGP4","RCS_SIZE":"LARGE","EPHEMERIS_TYPE":"0","APOAPSIS":"548.299","RA_OF_ASC_NODE":"181.5966","OBJECT_TYPE":"PAYLOAD"},{"NORAD_CAT_ID":"45775","REF_FRAME":"TEME","INCLINATION":"53.0538","MEAN_MOTION_DDOT":"0.0000000000000","EPOCH":"2022-03-30T13:36:28.888992","GP_ID":"200069087","BSTAR":"0.00106840000000","DECAY_DATE":null,"PERIAPSIS":"546.186","FILE":"3380779","MEAN_MOTION_DOT":"0.00015666","OBJECT_ID":"2020-038AX","SEMIMAJOR_AXIS":"6925.364","PERIOD":"95.592","LAUNCH_DATE":"2020-06-13","TLE_LINE1":"1 45775U 20038AX  22089.56700103  .00015666  00000-0  10684-2 0  9999","SITE":"AFETR","REV_AT_EPOCH":"9970","ELEMENT_SET_NO":"999","CENTER_NAME":"EARTH","MEAN_MOTION":"15.06394807","CLASSIFICATION_TYPE":"U","ARG_OF_PERICENTER":"75.1855","ECCENTRICITY":"0.00015070","TIME_SYSTEM":"UTC","COUNTRY_CODE":"US","MEAN_ANOMALY":"284.9301","RA_OF_ASC_NODE":"181.5842","APOAPSIS":"548.273","OBJECT_TYPE":"PAYLOAD","MEAN_ELEMENT_THEORY":"SGP4","OBJECT_NAME":"STARLINK-1488","TLE_LINE2":"2 45775  53.0538 181.5842 0001507  75.1855 284.9301 15.06394807 99702","EPHEMERIS_TYPE":"0","RCS_SIZE":"LARGE"},{"OBJECT_TYPE":"PAYLOAD","APOAPSIS":"548.344","RA_OF_ASC_NODE":"180.6420","MEAN_ELEMENT_THEORY":"SGP4","TLE_LINE2":"2 45776  53.0531 180.6420 0001613  62.2009 297.9143 15.06395490 99734","OBJECT_NAME":"STARLINK-1489","EPHEMERIS_TYPE":"0","RCS_SIZE":"LARGE","CENTER_NAME":"EARTH","MEAN_MOTION":"15.06395490","TIME_SYSTEM":"UTC","ECCENTRICITY":"0.00016130","CLASSIFICATION_TYPE":"U","ARG_OF_PERICENTER":"62.2009","MEAN_ANOMALY":"297.9143","COUNTRY_CODE":"US","BSTAR":"-0.00002216300000","FILE":"3380787","PERIAPSIS":"546.110","DECAY_DATE":null,"MEAN_MOTION_DOT":"-0.00000612","OBJECT_ID":"2020-038AY","SEMIMAJOR_AXIS":"6925.362","PERIOD":"95.592","LAUNCH_DATE":"2020-06-13","TLE_LINE1":"1 45776U 20038AY  22089.77340600 -.00000612  00000-0 -22163-4 0  9999","ELEMENT_SET_NO":"999","SITE":"AFETR","REV_AT_EPOCH":"9973","NORAD_CAT_ID":"45776","INCLINATION":"53.0531","REF_FRAME":"TEME","MEAN_MOTION_DDOT":"0.0000000000000","EPOCH":"2022-03-30T18:33:42.278400","GP_ID":"200094447"},{"MEAN_ANOMALY":"295.2521","COUNTRY_CODE":"US","ECCENTRICITY":"0.00015800","TIME_SYSTEM":"UTC","ARG_OF_PERICENTER":"64.8631","CLASSIFICATION_TYPE":"U","MEAN_MOTION":"15.06404120","CENTER_NAME":"EARTH","RCS_SIZE":"LARGE","EPHEMERIS_TYPE":"0","TLE_LINE2":"2 45777  53.0547 180.6804 0001580  64.8631 295.2521 15.06404120 99732","OBJECT_NAME":"STARLINK-1490","MEAN_ELEMENT_THEORY":"SGP4","OBJECT_TYPE":"PAYLOAD","APOAPSIS":"548.295","RA_OF_ASC_NODE":"180.6804","GP_ID":"200095199","MEAN_MOTION_DDOT":"0.0000000000000","EPOCH":"2022-03-30T18:28:23.909088","INCLINATION":"53.0547","REF_FRAME":"TEME","NORAD_CAT_ID":"45777","ELEMENT_SET_NO":"999","SITE":"AFETR","REV_AT_EPOCH":"9973","TLE_LINE1":"1 45777U 20038AZ  22089.76972117  .00001903  00000-0  14663-3 0  9990","LAUNCH_DATE":"2020-06-13","PERIOD":"95.592","SEMIMAJOR_AXIS":"6925.336","OBJECT_ID":"2020-038AZ","MEAN_MOTION_DOT":"0.00001903","PERIAPSIS":"546.107","FILE":"3380787","DECAY_DATE":null,"BSTAR":"0.00014663000000"},{"NORAD_CAT_ID":"45778","INCLINATION":"53.0532","REF_FRAME":"TEME","MEAN_MOTION_DDOT":"0.0000000000000","EPOCH":"2022-03-30T18:01:51.900960","GP_ID":"200045258","BSTAR":"0.00051649000000","FILE":"3380567","PERIAPSIS":"546.364","DECAY_DATE":null,"MEAN_MOTION_DOT":"0.00007420","OBJECT_ID":"2020-038BA","SEMIMAJOR_AXIS":"6925.347","PERIOD":"95.592","LAUNCH_DATE":"2020-06-13","TLE_LINE1":"1 45778U 20038BA  22089.75129515  .00007420  00000-0  51649-3 0  9991","ELEMENT_SET_NO":"999","REV_AT_EPOCH":"10083","SITE":"AFETR","CENTER_NAME":"EARTH","MEAN_MOTION":"15.06400356","TIME_SYSTEM":"UTC","ECCENTRICITY":"0.00012250","ARG_OF_PERICENTER":"80.4780","CLASSIFICATION_TYPE":"U","MEAN_ANOMALY":"279.6347","COUNTRY_CODE":"US","OBJECT_TYPE":"PAYLOAD","RA_OF_ASC_NODE":"180.7493","APOAPSIS":"548.061","MEAN_ELEMENT_THEORY":"SGP4","TLE_LINE2":"2 45778  53.0532 180.7493 0001225  80.4780 279.6347 15.06400356100830","OBJECT_NAME":"STARLINK-1491","EPHEMERIS_TYPE":"0","RCS_SIZE":"LARGE"}];
